PROBA-1                 
1 26958U 01049B   26167.00826238  .00001529  00000+0  10176-3 0  9999
2 26958  97.9597 175.4992 0056360 125.7436 234.9051 15.07491431343440
CUTE-1 (CO-55)          
1 27844U 03031E   26166.98345551  .00000235  00000+0  12048-3 0  9990
2 27844  98.6736 175.5574 0009449 181.4906 178.6246 14.24335068191501
CUBESAT XI-IV (CO-57)   
1 27848U 03031J   26166.76045949  .00000197  00000+0  10563-3 0  9995
2 27848  98.6766 175.0510 0008932 201.3746 158.7060 14.23620108191170
APRIZESAT 4             
1 35684U 09041D   26166.70611754  .00000561  00000+0  73668-4 0  9997
2 35684  98.1413 241.9971 0042490 327.9564  31.9066 14.83877623911142
APRIZESAT 3             
1 35686U 09041F   26166.89522227  .00001499  00000+0  13350-3 0  9997
2 35686  98.2058 320.0571 0062771  71.9171 288.8874 14.96237581916185
PROBA-2                 
1 36037U 09059B   26166.93373761  .00000150  00000+0  45471-4 0  9992
2 36037  98.2449 350.3039 0011985 286.4316  73.5564 14.54861986881340
APRIZESAT 5             
1 37792U 11044E   26166.79118003  .00000968  00000+0  12939-3 0  9997
2 37792  98.2453  99.7920 0052458   8.8147 351.3974 14.81073371798583
APRIZESAT 6             
1 37793U 11044F   26166.99546477  .00000651  00000+0  98906-4 0  9998
2 37793  98.2365  77.4707 0044496  89.7335 333.6407 14.76914317796975
PROBA-V                 
1 39159U 13021A   26166.92431457  .00000049  00000+0  39415-4 0  9998
2 39159  98.3583 145.5933 0005087 126.4108 233.7541 14.23596756680936
APRIZESAT 7             
1 39416U 13066A   26166.81225015  .00001059  00000+0  11016-3 0  9990
2 39416  97.7709 120.0519 0034893 213.9210 145.9778 14.91561320681027
APRIZESAT 8             
1 39425U 13066K   26166.79622394  .00000821  00000+0  94908-4 0  9996
2 39425  97.8220 114.2835 0044478 291.3072  68.3399 14.87650478679468
BUGSAT-1 (TITA)         
1 40014U 14033E   26166.97986419  .00004949  00000+0  26229-3 0  9993
2 40014  98.0436 259.4576 0027933 182.3798 177.7305 15.15575612655656
SAUDISAT 4              
1 40016U 14033G   26166.96915447  .00000569  00000+0  81553-4 0  9993
2 40016  97.7580 313.1459 0046184  77.8398 282.7982 14.79543385645899
APRIZESAT 9             
1 40018U 14033J   26166.91799100  .00000595  00000+0  94848-4 0  9996
2 40018  97.9059 300.1476 0065591 203.2811 156.5424 14.74212989643375
APRIZESAT 10            
1 40019U 14033K   26166.90215808  .00000348  00000+0  62734-4 0  9999
2 40019  97.9648 293.8902 0077391 278.0254  81.2176 14.70881416642060
TECHDEMOSAT-1 (TDS-1)   
1 40076U 14037H   26166.90218796  .00006438  00000+0  36610-3 0  9994
2 40076  98.3810 158.9878 0004446 271.4502  88.6217 15.13277813648034
TECHNOSAT               
1 42829U 17042E   26166.91948933  .00003548  00000+0  25358-3 0  9991
2 42829  97.4279 324.6250 0018863  98.2176 262.1191 15.04953653486513
FLYING LAPTOP           
1 42831U 17042G   26166.98568359  .00002966  00000+0  23513-3 0  9995
2 42831  97.4677 322.5642 0019509 125.5678 234.7368 15.01139202486276
HAWK-A                  
1 43765U 18099H   26166.90422035  .00005291  00000+0  21410-3 0  9995
2 43765  97.3914 219.1569 0033127 290.6749  69.0938 15.24630206412906
HAWK-B                  
1 43794U 18099AN  26166.66139116  .00004732  00000+0  20288-3 0  9996
2 43794  97.3963 218.3354 0030599 310.5596  49.2977 15.22811951412805
HAWK-C                  
1 43799U 18099AT  26166.68721505  .00006413  00000+0  23182-3 0  9996
2 43799  97.3891 219.8474 0038789 291.3351  68.3750 15.28085684413683
SALSAT                  
1 46495U 20068K   26166.77190721  .00006667  00000+0  23385-3 0  9997
2 46495  97.8844 169.7502 0008124 314.2855  45.7717 15.29782498315143
HAWK-2C                 
1 47502U 21006CT  26166.84819955  .00005564  00000+0  16796-3 0  9998
2 47502  97.2275 211.1847 0006549 190.4289 169.6820 15.34649648299296
HAWK-2A                 
1 47505U 21006CW  26166.72029842  .00005652  00000+0  17050-3 0  9998
2 47505  97.2318 211.7363 0005944 194.1547 165.9531 15.34663257299270
HAWK-2B                 
1 47508U 21006CZ  26166.84631633  .00006022  00000+0  18098-3 0  9996
2 47508  97.2187 210.1938 0006544 191.8588 168.2503 15.34751028299295
HAWK-3B                 
1 48931U 21059BE  26166.79410914  .00037015  00000+0  31563-3 0  9994
2 48931  97.6654   3.3703 0003294 337.9580  22.1539 15.69456462277638
HAWK-3C                 
1 48948U 21059BX  26166.53875129  .00038758  00000+0  33058-3 0  9993
2 48948  97.6771   8.7743 0003649 341.3056  18.8070 15.69439647277593
HAWK-3A                 
1 48957U 21059CG  26166.53863403  .00039884  00000+0  33997-3 0  9998
2 48957  97.6715   5.9805 0003770 342.6233  17.4898 15.69448522277590
HAWK-5C                 
1 52754U 22057Y   26166.94759587  .00015482  00000+0  26481-3 0  9997
2 52754  97.6593 326.5340 0005098  86.7842 273.3993 15.51355304226158
HAWK-5B                 
1 52756U 22057AA  26166.68943762  .00015993  00000+0  27349-3 0  9991
2 52756  97.6601 324.6084 0005761  80.4738 279.7164 15.51348208226117
